{
    "links": {
        "self": "http://www.neowsapp.com/rest/v1/neo/3746447?api_key=iIulBulltgU6a56xZRHN4H3l9WmuAYTsLGpBGhQ2"
    },
    "id": "3746447",
    "neo_reference_id": "3746447",
    "name": "(2016 ER85)",
    "designation": "2016 ER85",
    "nasa_jpl_url": "http://ssd.jpl.nasa.gov/sbdb.cgi?sstr=3746447",
    "absolute_magnitude_h": 27.8,
    "estimated_diameter": {
        "kilometers": {
            "estimated_diameter_min": 0.0073207399,
            "estimated_diameter_max": 0.016369672
        },
        "meters": {
            "estimated_diameter_min": 7.3207398935,
            "estimated_diameter_max": 16.3696720474
        },
        "miles": {
            "estimated_diameter_min": 0.0045488955,
            "estimated_diameter_max": 0.0101716395
        },
        "feet": {
            "estimated_diameter_min": 24.0181762721,
            "estimated_diameter_max": 53.70627484
        }
    },
    "is_potentially_hazardous_asteroid": false,
    "close_approach_data": [
        {
            "close_approach_date": "2016-03-11",
            "close_approach_date_full": "2016-Mar-11 00:07",
            "epoch_date_close_approach": 1457654820000,
            "relative_velocity": {
                "kilometers_per_second": "7.3165897291",
                "kilometers_per_hour": "26339.723024658",
                "miles_per_hour": "16366.4795649604"
            },
            "miss_distance": {
                "astronomical": "0.0389290319",
                "lunar": "15.1433934091",
                "kilometers": "5823700.253402053",
                "miles": "3618679.5370642114"
            },
            "orbiting_body": "Earth"
        }
    ],
    "orbital_data": {
        "orbit_id": "4",
        "orbit_determination_date": "2017-04-06 08:27:35",
        "first_observation_date": "2016-03-10",
        "last_observation_date": "2016-03-17",
        "data_arc_in_days": 7,
        "observations_used": 17,
        "orbit_uncertainty": "8",
        "minimum_orbit_intersection": ".0388451",
        "jupiter_tisserand_invariant": "3.638",
        "epoch_osculation": "2457459.5",
        "eccentricity": ".492391232200475",
        "semi_major_axis": "2.032735747751748",
        "inclination": "7.604193661665747",
        "ascending_node_longitude": "168.4827509376893",
        "orbital_period": "1058.5705657904",
        "perihelion_distance": "1.031834488178311",
        "perihelion_argument": "3.954288062352469",
        "aphelion_distance": "3.033637007325185",
        "perihelion_time": "2457459.983902669917",
        "mean_anomaly": "359.8354337756973",
        "mean_motion": ".3400812488406946",
        "equinox": "J2000",
        "orbit_class": {
            "orbit_class_type": "AMO",
            "orbit_class_description": "Near-Earth asteroid orbits similar to that of 1221 Amor",
            "orbit_class_range": "1.017 AU < q (perihelion) < 1.3 AU"
        }
    },
    "is_sentry_object": false
}